{"type": "FeatureCollection", "features": [ {"type": "Feature", "properties": {"norad_id": 35239, "name": "FENGYUN 1C DEB", "group": "fengyun-1c-debris", "lat": -76.45622620558515, "lon": -165.6208967413694, "alt_km": 972.9949208924136, "timestamp": "2025-12-17T04:57:44.652789+00:00", "meta": {"OBJECT_NAME": "FENGYUN 1C DEB", "OBJECT_ID": "1999-025DQX", "EPOCH": "2025-12-12T09:35:43.878624", "MEAN_MOTION": 13.69214451, "ECCENTRICITY": 0.02297009, "INCLINATION": 99.2659, "RA_OF_ASC_NODE": 147.0912, "ARG_OF_PERICENTER": 11.2565, "MEAN_ANOMALY": 349.3598, "EPHEMERIS_TYPE": 0, "CLASSIFICATION_TYPE": "U", "NORAD_CAT_ID": 35239, "ELEMENT_SET_NO": 999, "REV_AT_EPOCH": 58126, "BSTAR": 0.0012894892, "MEAN_MOTION_DOT": 1.302e-05, "MEAN_MOTION_DDOT": 0}, "tle": {"line1": "1 35239U 99025DQX 25346.39981341  .00001302  00000+0  12895-2 0  9997", "line2": "2 35239  99.2659 147.0912 0229700  11.2565 349.3598 13.69214451581267"}}, "geometry": {"type": "Point", "coordinates": [-165.6208967413694, -76.45622620558515]}}, {"type": "Feature", "properties": {"norad_id": 35240, "name": "FENGYUN 1C DEB", "group": "fengyun-1c-debris", "lat": -78.07400052784817, "lon": 82.6410324490688, "alt_km": 839.787607374159, "timestamp": "2025-12-17T04:57:44.652798+00:00", "meta": {"OBJECT_NAME": "FENGYUN 1C DEB", "OBJECT_ID": "1999-025DQY", "EPOCH": "2025-12-14T08:15:03.732480", "MEAN_MOTION": 14.23315841, "ECCENTRICITY": 0.00461551, "INCLINATION": 99.3504, "RA_OF_ASC_NODE": 310.8723, "ARG_OF_PERICENTER": 146.747, "MEAN_ANOMALY": 213.6621, "EPHEMERIS_TYPE": 0, "CLASSIFICATION_TYPE": "U", "NORAD_CAT_ID": 35240, "ELEMENT_SET_NO": 999, "REV_AT_EPOCH": 93187, "BSTAR": 0.0020680168, "MEAN_MOTION_DOT": 4.691e-05, "MEAN_MOTION_DDOT": 0}, "tle": {"line1": "1 35240U 99025DQY 25348.34379320  .00004691  00000+0  20680-2 0  9999", "line2": "2 35240  99.3504 310.8723 0046155 146.7470 213.6621 14.23315841931871"}}, "geometry": {"type": "Point", "coordinates": [82.6410324490688, -78.07400052784817]}}, {"type": "Feature", "properties": {"norad_id": 35241, "name": "FENGYUN 1C DEB", "group": "fengyun-1c-debris", "lat": -41.488679170988625, "lon": 92.31053117776018, "alt_km": 804.6322205366941, "timestamp": "2025-12-17T04:57:44.652806+00:00", "meta": {"OBJECT_NAME": "FENGYUN 1C DEB", "OBJECT_ID": "1999-025DQZ", "EPOCH": "2025-12-11T05:44:22.817472", "MEAN_MOTION": 14.01929609, "ECCENTRICITY": 0.0135502, "INCLINATION": 98.631, "RA_OF_ASC_NODE": 274.3792, "ARG_OF_PERICENTER": 212.8639, "MEAN_ANOMALY": 146.4048, "EPHEMERIS_TYPE": 0, "CLASSIFICATION_TYPE": "U", "NORAD_CAT_ID": 35241, "ELEMENT_SET_NO": 999, "REV_AT_EPOCH": 87585, "BSTAR": 0.002553102, "MEAN_MOTION_DOT": 4.174e-05, "MEAN_MOTION_DDOT": 0}, "tle": {"line1": "1 35241U 99025DQZ 25345.23915298  .00004174  00000+0  25531-2 0  9991", "line2": "2 35241  98.6310 274.3792 0135502 212.8639 146.4048 14.01929609875856"}}, "geometry": {"type": "Point", "coordinates": [92.31053117776018, -41.488679170988625]}}, {"type": "Feature", "properties": {"norad_id": 35242, "name": "FENGYUN 1C DEB", "group": "fengyun-1c-debris", "lat": -57.64015248147314, "lon": -152.33693571053635, "alt_km": 957.3614788187815, "timestamp": "2025-12-17T04:57:44.652817+00:00", "meta": {"OBJECT_NAME": "FENGYUN 1C DEB", "OBJECT_ID": "1999-025DRA", "EPOCH": "2025-12-09T15:26:53.963232", "MEAN_MOTION": 13.52332883, "ECCENTRICITY": 0.0301834, "INCLINATION": 99.9692, "RA_OF_ASC_NODE": 36.171, "ARG_OF_PERICENTER": 196.4444, "MEAN_ANOMALY": 317.6855, "EPHEMERIS_TYPE": 0, "CLASSIFICATION_TYPE": "U", "NORAD_CAT_ID": 35242, "ELEMENT_SET_NO": 999, "REV_AT_EPOCH": 58085, "BSTAR": 0.0024719, "MEAN_MOTION_DOT": 2.128e-05, "MEAN_MOTION_DDOT": 0}, "tle": {"line1": "1 35242U 99025DRA 25343.64368013  .00002128  00000+0  24719-2 0  9996", "line2": "2 35242  99.9692  36.1710 0301834 196.4444 317.6855 13.52332883580850"}}, "geometry": {"type": "Point", "coordinates": [-152.33693571053635, -57.64015248147314]}}, {"type": "Feature", "properties": {"norad_id": 35243, "name": "FENGYUN 1C DEB", "group": "fengyun-1c-debris", "lat": -67.66014978522426, "lon": 92.97009765105217, "alt_km": 583.0562346493089, "timestamp": "2025-12-17T04:57:44.652827+00:00", "meta": {"OBJECT_NAME": "FENGYUN 1C DEB", "OBJECT_ID": "1999-025DRB", "EPOCH": "2025-12-16T22:48:51.678432", "MEAN_MOTION": 14.87126745, "ECCENTRICITY": 0.00658692, "INCLINATION": 98.8808, "RA_OF_ASC_NODE": 70.32, "ARG_OF_PERICENTER": 243.6277, "MEAN_ANOMALY": 115.8164, "EPHEMERIS_TYPE": 0, "CLASSIFICATION_TYPE": "U", "NORAD_CAT_ID": 35243, "ELEMENT_SET_NO": 999, "REV_AT_EPOCH": 91063, "BSTAR": 0.0017184601, "MEAN_MOTION_DOT": 0.00016023, "MEAN_MOTION_DDOT": 0}, "tle": {"line1": "1 35243U 99025DRB 25350.95059813  .00016023  00000+0  17185-2 0  9992", "line2": "2 35243  98.8808  70.3200 0065869 243.6277 115.8164 14.87126745910637"}}, "geometry": {"type": "Point", "coordinates": [92.97009765105217, -67.66014978522426]}}, {"type": "Feature", "properties": {"norad_id": 35244, "name": "FENGYUN 1C DEB", "group": "fengyun-1c-debris", "lat": 59.55906318434031, "lon": 15.966022918173406, "alt_km": 859.419486842583, "timestamp": "2025-12-17T04:57:44.652836+00:00", "meta": {"OBJECT_NAME": "FENGYUN 1C DEB", "OBJECT_ID": "1999-025DRC", "EPOCH": "2025-12-15T01:27:29.609568", "MEAN_MOTION": 14.0663194, "ECCENTRICITY": 0.00720078, "INCLINATION": 98.8406, "RA_OF_ASC_NODE": 29.2264, "ARG_OF_PERICENTER": 150.9976, "MEAN_ANOMALY": 209.5222, "EPHEMERIS_TYPE": 0, "CLASSIFICATION_TYPE": "U", "NORAD_CAT_ID": 35244, "ELEMENT_SET_NO": 999, "REV_AT_EPOCH": 65854, "BSTAR": 0.00060310284, "MEAN_MOTION_DOT": 9.81e-06, "MEAN_MOTION_DDOT": 0}, "tle": {"line1": "1 35244U 99025DRC 25349.06075937  .00000981  00000+0  60310-3 0  9993", "line2": "2 35244  98.8406  29.2264 0072007 150.9976 209.5222 14.06631940658547"}}, "geometry": {"type": "Point", "coordinates": [15.966022918173406, 59.55906318434031]}}, {"type": "Feature", "properties": {"norad_id": 35245, "name": "FENGYUN 1C DEB", "group": "fengyun-1c-debris", "lat": 60.86849125307917, "lon": 60.10597330690285, "alt_km": 884.1155982776554, "timestamp": "2025-12-17T04:57:44.652845+00:00", "meta": {"OBJECT_NAME": "FENGYUN 1C DEB", "OBJECT_ID": "1999-025DRD", "EPOCH": "2025-12-16T05:00:34.187328", "MEAN_MOTION": 14.1311119, "ECCENTRICITY": 0.00594622, "INCLINATION": 99.085, "RA_OF_ASC_NODE": 75.778, "ARG_OF_PERICENTER": 260.7945, "MEAN_ANOMALY": 126.8576, "EPHEMERIS_TYPE": 0, "CLASSIFICATION_TYPE": "U", "NORAD_CAT_ID": 35245, "ELEMENT_SET_NO": 999, "REV_AT_EPOCH": 87826, "BSTAR": 0.0012589091, "MEAN_MOTION_DOT": 2.346e-05, "MEAN_MOTION_DDOT": 0}, "tle": {"line1": "1 35245U 99025DRD 25350.20872902  .00002346  00000+0  12589-2 0  9990", "line2": "2 35245  99.0850  75.7780 0059462 260.7945 126.8576 14.13111190878263"}}, "geometry": {"type": "Point", "coordinates": [60.10597330690285, 60.86849125307917]}}, {"type": "Feature", "properties": {"norad_id": 36147, "name": "FENGYUN 1C DEB", "group": "fengyun-1c-debris", "lat": 70.38772978136214, "lon": -96.30377516332055, "alt_km": 1338.442338993379, "timestamp": "2025-12-17T04:57:44.652854+00:00", "meta": {"OBJECT_NAME": "FENGYUN 1C DEB", "OBJECT_ID": "1999-025DRU", "EPOCH": "2025-12-06T11:35:31.438464", "MEAN_MOTION": 13.46487115, "ECCENTRICITY": 0.04411963, "INCLINATION": 98.5268, "RA_OF_ASC_NODE": 49.6332, "ARG_OF_PERICENTER": 279.0005, "MEAN_ANOMALY": 76.1459, "EPHEMERIS_TYPE": 0, "CLASSIFICATION_TYPE": "U", "NORAD_CAT_ID": 36147, "ELEMENT_SET_NO": 999, "REV_AT_EPOCH": 59913, "BSTAR": 0.0028331014, "MEAN_MOTION_DOT": 3.048e-05, "MEAN_MOTION_DDOT": 0}, "tle": {"line1": "1 36147U 99025DRU 25340.48300276  .00003048  00000+0  28331-2 0  9993", "line2": "2 36147  98.5268  49.6332 0441196 279.0005  76.1459 13.46487115599135"}}, "geometry": {"type": "Point", "coordinates": [-96.30377516332055, 70.38772978136214]}}, {"type": "Feature", "properties": {"norad_id": 36148, "name": "FENGYUN 1C DEB", "group": "fengyun-1c-debris", "lat": -40.843418670356336, "lon": -151.07748010978162, "alt_km": 754.0655352988606, "timestamp": "2025-12-17T04:57:44.652863+00:00", "meta": {"OBJECT_NAME": "FENGYUN 1C DEB", "OBJECT_ID": "1999-025DRV", "EPOCH": "2025-12-15T20:12:32.125536", "MEAN_MOTION": 13.8496873, "ECCENTRICITY": 0.02858291, "INCLINATION": 98.4232, "RA_OF_ASC_NODE": 200.3354, "ARG_OF_PERICENTER": 341.3484, "MEAN_ANOMALY": 17.7365, "EPHEMERIS_TYPE": 0, "CLASSIFICATION_TYPE": "U", "NORAD_CAT_ID": 36148, "ELEMENT_SET_NO": 999, "REV_AT_EPOCH": 90287, "BSTAR": 0.0024911012, "MEAN_MOTION_DOT": 3.832e-05, "MEAN_MOTION_DDOT": 0}, "tle": {"line1": "1 36148U 99025DRV 25349.84203849  .00003832  00000+0  24911-2 0  9992", "line2": "2 36148  98.4232 200.3354 0285829 341.3484  17.7365 13.84968730902874"}}, "geometry": {"type": "Point", "coordinates": [-151.07748010978162, -40.843418670356336]}}, {"type": "Feature", "properties": {"norad_id": 36152, "name": "FENGYUN 1C DEB", "group": "fengyun-1c-debris", "lat": -68.25417749466449, "lon": 53.667974807682256, "alt_km": 842.2195403307396, "timestamp": "2025-12-17T04:57:44.652872+00:00", "meta": {"OBJECT_NAME": "FENGYUN 1C DEB", "OBJECT_ID": "1999-025DRZ", "EPOCH": "2025-12-13T21:39:33.476256", "MEAN_MOTION": 14.17255795, "ECCENTRICITY": 0.0055437, "INCLINATION": 98.7561, "RA_OF_ASC_NODE": 27.6836, "ARG_OF_PERICENTER": 208.5771, "MEAN_ANOMALY": 151.2362, "EPHEMERIS_TYPE": 0, "CLASSIFICATION_TYPE": "U", "NORAD_CAT_ID": 36152, "ELEMENT_SET_NO": 999, "REV_AT_EPOCH": 64173, "BSTAR": 0.0015130759, "MEAN_MOTION_DOT": 3.059e-05, "MEAN_MOTION_DDOT": 0}, "tle": {"line1": "1 36152U 99025DRZ 25347.90247079  .00003059  00000+0  15131-2 0  9990", "line2": "2 36152  98.7561  27.6836 0055437 208.5771 151.2362 14.17255795641738"}}, "geometry": {"type": "Point", "coordinates": [53.667974807682256, -68.25417749466449]}}]}